[{"OBJECT_NAME":"ONEWEB-0411","OBJECT_ID":"2022-012B","EPOCH":"2026-05-17T03:56:58.747776","MEAN_MOTION":13.10376233,"ECCENTRICITY":0.0001328,"INCLINATION":87.8865,"RA_OF_ASC_NODE":42.439,"ARG_OF_PERICENTER":71.9833,"MEAN_ANOMALY":288.1439,"EPHEMERIS_TYPE":0,"CLASSIFICATION_TYPE":"U","NORAD_CAT_ID":51623,"ELEMENT_SET_NO":999,"REV_AT_EPOCH":20522,"BSTAR":-0.00018065,"MEAN_MOTION_DOT":-5e-07,"MEAN_MOTION_DDOT":0.0},{"OBJECT_NAME":"ONEWEB-0415","OBJECT_ID":"2022-012C","EPOCH":"2026-05-17T03:52:11.976672","MEAN_MOTION":13.10375252,"ECCENTRICITY":0.0001632,"INCLINATION":87.886,"RA_OF_ASC_NODE":42.4404,"ARG_OF_PERICENTER":79.6198,"MEAN_ANOMALY":280.5113,"EPHEMERIS_TYPE":0,"CLASSIFICATION_TYPE":"U","NORAD_CAT_ID":51624,"ELEMENT_SET_NO":999,"REV_AT_EPOCH":20522,"BSTAR":-0.0006886,"MEAN_MOTION_DOT":-2.28e-06,"MEAN_MOTION_DDOT":0.0},{"OBJECT_NAME":"ONEWEB-0416","OBJECT_ID":"2022-012D","EPOCH":"2026-05-17T04:08:56.400000","MEAN_MOTION":13.10376351,"ECCENTRICITY":0.0001543,"INCLINATION":87.8856,"RA_OF_ASC_NODE":42.4569,"ARG_OF_PERICENTER":88.4468,"MEAN_ANOMALY":271.6836,"EPHEMERIS_TYPE":0,"CLASSIFICATION_TYPE":"U","NORAD_CAT_ID":51625,"ELEMENT_SET_NO":999,"REV_AT_EPOCH":20526,"BSTAR":0.00092736,"MEAN_MOTION_DOT":3.36e-06,"MEAN_MOTION_DDOT":0.0},{"OBJECT_NAME":"ONEWEB-0422","OBJECT_ID":"2022-012E","EPOCH":"2026-05-17T04:04:05.933568","MEAN_MOTION":13.17648597,"ECCENTRICITY":0.0001945,"INCLINATION":87.9169,"RA_OF_ASC_NODE":12.0231,"ARG_OF_PERICENTER":64.1553,"MEAN_ANOMALY":295.9779,"EPHEMERIS_TYPE":0,"CLASSIFICATION_TYPE":"U","NORAD_CAT_ID":51626,"ELEMENT_SET_NO":999,"REV_AT_EPOCH":20972,"BSTAR":0.00013596,"MEAN_MOTION_DOT":6.6e-07,"MEAN_MOTION_DDOT":0.0},{"OBJECT_NAME":"ONEWEB-0423","OBJECT_ID":"2022-012F","EPOCH":"2026-05-17T02:05:01.758624","MEAN_MOTION":13.176471,"ECCENTRICITY":0.000197,"INCLINATION":87.9163,"RA_OF_ASC_NODE":12.0467,"ARG_OF_PERICENTER":84.504,"MEAN_ANOMALY":275.6316,"EPHEMERIS_TYPE":0,"CLASSIFICATION_TYPE":"U","NORAD_CAT_ID":51627,"ELEMENT_SET_NO":999,"REV_AT_EPOCH":20960,"BSTAR":0.0001072,"MEAN_MOTION_DOT":5.4e-07,"MEAN_MOTION_DDOT":0.0},{"OBJECT_NAME":"ONEWEB-0425","OBJECT_ID":"2022-012G","EPOCH":"2026-05-17T02:33:21.600000","MEAN_MOTION":13.10372756,"ECCENTRICITY":0.000215,"INCLINATION":87.8856,"RA_OF_ASC_NODE":42.4528,"ARG_OF_PERICENTER":85.8113,"MEAN_ANOMALY":274.326,"EPHEMERIS_TYPE":0,"CLASSIFICATION_TYPE":"U","NORAD_CAT_ID":51628,"ELEMENT_SET_NO":999,"REV_AT_EPOCH":20525,"BSTAR":0.0016768,"MEAN_MOTION_DOT":5.98e-06,"MEAN_MOTION_DDOT":0.0},{"OBJECT_NAME":"ONEWEB-0428","OBJECT_ID":"2022-012H","EPOCH":"2026-05-17T03:54:35.351424","MEAN_MOTION":13.10375848,"ECCENTRICITY":0.0001898,"INCLINATION":87.8858,"RA_OF_ASC_NODE":42.4493,"ARG_OF_PERICENTER":77.2488,"MEAN_ANOMALY":282.8851,"EPHEMERIS_TYPE":0,"CLASSIFICATION_TYPE":"U","NORAD_CAT_ID":51629,"ELEMENT_SET_NO":999,"REV_AT_EPOCH":20522,"BSTAR":-0.00048426999999999997,"MEAN_MOTION_DOT":-1.56e-06,"MEAN_MOTION_DDOT":0.0},{"OBJECT_NAME":"ONEWEB-0431","OBJECT_ID":"2022-012J","EPOCH":"2026-05-17T03:11:21.543936","MEAN_MOTION":13.10370442,"ECCENTRICITY":0.0001329,"INCLINATION":87.8855,"RA_OF_ASC_NODE":42.4471,"ARG_OF_PERICENTER":66.4737,"MEAN_ANOMALY":293.653,"EPHEMERIS_TYPE":0,"CLASSIFICATION_TYPE":"U","NORAD_CAT_ID":51630,"ELEMENT_SET_NO":999,"REV_AT_EPOCH":20527,"BSTAR":-0.00037783,"MEAN_MOTION_DOT":-1.19e-06,"MEAN_MOTION_DDOT":0.0},{"OBJECT_NAME":"ONEWEB-0434","OBJECT_ID":"2022-012K","EPOCH":"2026-05-17T02:38:19.445856","MEAN_MOTION":13.10372555,"ECCENTRICITY":0.0002418,"INCLINATION":87.8858,"RA_OF_ASC_NODE":42.4757,"ARG_OF_PERICENTER":89.5327,"MEAN_ANOMALY":270.6078,"EPHEMERIS_TYPE":0,"CLASSIFICATION_TYPE":"U","NORAD_CAT_ID":51631,"ELEMENT_SET_NO":999,"REV_AT_EPOCH":20525,"BSTAR":0.0019031,"MEAN_MOTION_DOT":6.77e-06,"MEAN_MOTION_DDOT":0.0},{"OBJECT_NAME":"ONEWEB-0435","OBJECT_ID":"2022-012L","EPOCH":"2026-05-17T04:40:01.344864","MEAN_MOTION":13.10370566,"ECCENTRICITY":0.0001877,"INCLINATION":87.885,"RA_OF_ASC_NODE":42.4474,"ARG_OF_PERICENTER":72.467,"MEAN_ANOMALY":287.6662,"EPHEMERIS_TYPE":0,"CLASSIFICATION_TYPE":"U","NORAD_CAT_ID":51632,"ELEMENT_SET_NO":999,"REV_AT_EPOCH":20525,"BSTAR":0.0012592999999999999,"MEAN_MOTION_DOT":4.52e-06,"MEAN_MOTION_DDOT":0.0},{"OBJECT_NAME":"ONEWEB-0436","OBJECT_ID":"2022-012M","EPOCH":"2026-05-17T03:42:13.463136","MEAN_MOTION":13.17649133,"ECCENTRICITY":0.0001771,"INCLINATION":87.9167,"RA_OF_ASC_NODE":12.0135,"ARG_OF_PERICENTER":76.3144,"MEAN_ANOMALY":283.8184,"EPHEMERIS_TYPE":0,"CLASSIFICATION_TYPE":"U","NORAD_CAT_ID":51633,"ELEMENT_SET_NO":999,"REV_AT_EPOCH":20959,"BSTAR":5.7681000000000006e-05,"MEAN_MOTION_DOT":3.5e-07,"MEAN_MOTION_DDOT":0.0},{"OBJECT_NAME":"ONEWEB-0438","OBJECT_ID":"2022-012N","EPOCH":"2026-05-17T04:16:07.352832","MEAN_MOTION":13.10374525,"ECCENTRICITY":0.0001987,"INCLINATION":87.8857,"RA_OF_ASC_NODE":42.4528,"ARG_OF_PERICENTER":83.3692,"MEAN_ANOMALY":276.7662,"EPHEMERIS_TYPE":0,"CLASSIFICATION_TYPE":"U","NORAD_CAT_ID":51634,"ELEMENT_SET_NO":999,"REV_AT_EPOCH":20528,"BSTAR":0.0014273,"MEAN_MOTION_DOT":5.11e-06,"MEAN_MOTION_DDOT":0.0},{"OBJECT_NAME":"ONEWEB-0439","OBJECT_ID":"2022-012P","EPOCH":"2026-05-17T00:40:59.676672","MEAN_MOTION":13.10373422,"ECCENTRICITY":0.0002017,"INCLINATION":87.8856,"RA_OF_ASC_NODE":42.4705,"ARG_OF_PERICENTER":78.256,"MEAN_ANOMALY":281.8794,"EPHEMERIS_TYPE":0,"CLASSIFICATION_TYPE":"U","NORAD_CAT_ID":51635,"ELEMENT_SET_NO":999,"REV_AT_EPOCH":20524,"BSTAR":0.001673,"MEAN_MOTION_DOT":5.97e-06,"MEAN_MOTION_DDOT":0.0},{"OBJECT_NAME":"ONEWEB-0442","OBJECT_ID":"2022-012Q","EPOCH":"2026-05-17T03:31:17.078016","MEAN_MOTION":13.17650796,"ECCENTRICITY":0.0002177,"INCLINATION":87.9161,"RA_OF_ASC_NODE":12.0498,"ARG_OF_PERICENTER":97.0107,"MEAN_ANOMALY":263.1272,"EPHEMERIS_TYPE":0,"CLASSIFICATION_TYPE":"U","NORAD_CAT_ID":51636,"ELEMENT_SET_NO":999,"REV_AT_EPOCH":20958,"BSTAR":7.753100000000001e-05,"MEAN_MOTION_DOT":4.3e-07,"MEAN_MOTION_DDOT":0.0},{"OBJECT_NAME":"ONEWEB-0443","OBJECT_ID":"2022-012R","EPOCH":"2026-05-17T03:59:13.880832","MEAN_MOTION":13.17650558,"ECCENTRICITY":0.0002171,"INCLINATION":87.916,"RA_OF_ASC_NODE":12.0474,"ARG_OF_PERICENTER":79.6536,"MEAN_ANOMALY":280.4841,"EPHEMERIS_TYPE":0,"CLASSIFICATION_TYPE":"U","NORAD_CAT_ID":51637,"ELEMENT_SET_NO":999,"REV_AT_EPOCH":20963,"BSTAR":0.00012348,"MEAN_MOTION_DOT":6.1e-07,"MEAN_MOTION_DDOT":0.0},{"OBJECT_NAME":"ONEWEB-0444","OBJECT_ID":"2022-012S","EPOCH":"2026-05-17T04:06:33.133248","MEAN_MOTION":13.10376672,"ECCENTRICITY":0.0002045,"INCLINATION":87.8857,"RA_OF_ASC_NODE":42.4408,"ARG_OF_PERICENTER":77.7169,"MEAN_ANOMALY":282.4188,"EPHEMERIS_TYPE":0,"CLASSIFICATION_TYPE":"U","NORAD_CAT_ID":51638,"ELEMENT_SET_NO":999,"REV_AT_EPOCH":20527,"BSTAR":0.00040077,"MEAN_MOTION_DOT":1.53e-06,"MEAN_MOTION_DDOT":0.0},{"OBJECT_NAME":"ONEWEB-0445","OBJECT_ID":"2022-012T","EPOCH":"2026-05-17T02:47:40.403904","MEAN_MOTION":13.10370627,"ECCENTRICITY":0.0001666,"INCLINATION":87.886,"RA_OF_ASC_NODE":42.4371,"ARG_OF_PERICENTER":81.893,"MEAN_ANOMALY":278.2387,"EPHEMERIS_TYPE":0,"CLASSIFICATION_TYPE":"U","NORAD_CAT_ID":51639,"ELEMENT_SET_NO":999,"REV_AT_EPOCH":20527,"BSTAR":0.001772,"MEAN_MOTION_DOT":6.31e-06,"MEAN_MOTION_DDOT":0.0},{"OBJECT_NAME":"ONEWEB-0446","OBJECT_ID":"2022-012U","EPOCH":"2026-05-17T04:04:09.710112","MEAN_MOTION":13.1037632,"ECCENTRICITY":0.0001753,"INCLINATION":87.8859,"RA_OF_ASC_NODE":42.4576,"ARG_OF_PERICENTER":81.5766,"MEAN_ANOMALY":278.556,"EPHEMERIS_TYPE":0,"CLASSIFICATION_TYPE":"U","NORAD_CAT_ID":51640,"ELEMENT_SET_NO":999,"REV_AT_EPOCH":20526,"BSTAR":0.00062862,"MEAN_MOTION_DOT":2.32e-06,"MEAN_MOTION_DDOT":0.0},{"OBJECT_NAME":"ONEWEB-0448","OBJECT_ID":"2022-012V","EPOCH":"2026-05-17T04:11:19.667616","MEAN_MOTION":13.10375108,"ECCENTRICITY":0.0001977,"INCLINATION":87.8856,"RA_OF_ASC_NODE":42.4536,"ARG_OF_PERICENTER":77.2918,"MEAN_ANOMALY":282.843,"EPHEMERIS_TYPE":0,"CLASSIFICATION_TYPE":"U","NORAD_CAT_ID":51641,"ELEMENT_SET_NO":999,"REV_AT_EPOCH":20523,"BSTAR":0.001143,"MEAN_MOTION_DOT":4.12e-06,"MEAN_MOTION_DDOT":0.0},{"OBJECT_NAME":"ONEWEB-0449","OBJECT_ID":"2022-012W","EPOCH":"2026-05-17T02:28:33.644352","MEAN_MOTION":13.10373742,"ECCENTRICITY":0.0002255,"INCLINATION":87.8857,"RA_OF_ASC_NODE":42.453,"ARG_OF_PERICENTER":88.926,"MEAN_ANOMALY":271.2126,"EPHEMERIS_TYPE":0,"CLASSIFICATION_TYPE":"U","NORAD_CAT_ID":51642,"ELEMENT_SET_NO":999,"REV_AT_EPOCH":20523,"BSTAR":0.0014548,"MEAN_MOTION_DOT":5.21e-06,"MEAN_MOTION_DDOT":0.0},{"OBJECT_NAME":"ONEWEB-0451","OBJECT_ID":"2022-012X","EPOCH":"2026-05-17T03:37:22.551744","MEAN_MOTION":13.1762338,"ECCENTRICITY":0.0002932,"INCLINATION":87.917,"RA_OF_ASC_NODE":12.0108,"ARG_OF_PERICENTER":102.4676,"MEAN_ANOMALY":257.6784,"EPHEMERIS_TYPE":0,"CLASSIFICATION_TYPE":"U","NORAD_CAT_ID":51643,"ELEMENT_SET_NO":999,"REV_AT_EPOCH":20957,"BSTAR":0.012203,"MEAN_MOTION_DOT":4.752e-05,"MEAN_MOTION_DDOT":0.0},{"OBJECT_NAME":"ONEWEB-0452","OBJECT_ID":"2022-012Y","EPOCH":"2026-05-17T03:34:56.279136","MEAN_MOTION":13.17648659,"ECCENTRICITY":0.0002168,"INCLINATION":87.9162,"RA_OF_ASC_NODE":12.0511,"ARG_OF_PERICENTER":82.6869,"MEAN_ANOMALY":277.4509,"EPHEMERIS_TYPE":0,"CLASSIFICATION_TYPE":"U","NORAD_CAT_ID":51644,"ELEMENT_SET_NO":999,"REV_AT_EPOCH":20958,"BSTAR":0.00011823,"MEAN_MOTION_DOT":5.9e-07,"MEAN_MOTION_DDOT":0.0},{"OBJECT_NAME":"ONEWEB-0456","OBJECT_ID":"2022-012AA","EPOCH":"2026-05-17T02:42:58.159296","MEAN_MOTION":13.1037608,"ECCENTRICITY":0.000192,"INCLINATION":87.8864,"RA_OF_ASC_NODE":42.4348,"ARG_OF_PERICENTER":73.5568,"MEAN_ANOMALY":286.5771,"EPHEMERIS_TYPE":0,"CLASSIFICATION_TYPE":"U","NORAD_CAT_ID":51646,"ELEMENT_SET_NO":999,"REV_AT_EPOCH":20527,"BSTAR":0.0021709999999999998,"MEAN_MOTION_DOT":7.71e-06,"MEAN_MOTION_DDOT":0.0}]